NORAD_CAT_ID,OBJECT_NAME,OBJECT_TYPE,EPOCH,MEAN_MOTION,ECCENTRICITY,INCLINATION,RA_OF_ASC_NODE,ARG_OF_PERICENTER,MEAN_ANOMALY,BSTAR,MEAN_MOTION_DOT,MEAN_MOTION_DDOT,TLE_LINE0,TLE_LINE1,TLE_LINE2,SEMIMAJOR_AXIS,PERIOD,APOGEE,PERIGEE,DECAYED
53805.0,STARLINK-4763,PAYLOAD,2022-10-12 06:00:00,15.73235593,8.08e-05,53.2148,112.7188,113.7124,23.8263,0.00024669,0.00034195,0.0,0 STARLINK-4763,1 53805U 22111AJ  22285.25001157  .00034195  00000-0  24669-3 0  9990,2 53805  53.2148 112.7188 0000808 113.7124  23.8263 15.73235593  4820,6727.794,91.531,350.202,349.115,0.0
53805.0,STARLINK-4763,PAYLOAD,2022-10-12 14:00:01,15.7327746,8.690000000000001e-05,53.2151,111.0689,119.6034,106.9149,0.0003601,0.00050389,0.0,0 STARLINK-4763,1 53805U 22111AJ  22285.58334491  .00050389  00000-0  36010-3 0  9992,2 53805  53.2151 111.0689 0000869 119.6034 106.9149 15.73277460  1309,6727.674,91.529,350.124,348.955,0.0
53805.0,STARLINK-4763,PAYLOAD,2022-10-12 22:00:00,15.73288158,7.340000000000001e-05,53.2153,109.421,97.1422,218.4222,0.00065756,0.00093043,0.0,0 STARLINK-4763,1 53805U 22111AJ  22285.91667824  .00093043  00000-0  65756-3 0  9991,2 53805  53.2153 109.4210 0000734  97.1422 218.4222 15.73288158  4933,6727.644,91.528,350.00300000000016,349.015,0.0
53805.0,STARLINK-4763,PAYLOAD,2022-10-13 14:00:01,15.73166643,0.0001078,53.2172,106.1246,102.439,30.8896,0.00043185,0.00060336,0.0,0 STARLINK-4763,1 53805U 22111AJ  22286.58334491  .00060336  00000-0  43185-3 0  9997,2 53805  53.2172 106.1246 0001078 102.4390  30.8896 15.73166643  1308,6727.99,91.535,350.581,349.13,0.0
53805.0,STARLINK-4763,PAYLOAD,2022-10-13 20:00:01,15.73186186,9.69e-05,53.2173,104.8891,92.3528,17.7306,0.00021791,0.00030053,0.0,0 STARLINK-4763,1 53805U 22111AJ  22286.83335648  .00030053  00000-0  21791-3 0  9992,2 53805  53.2173 104.8891 0000969  92.3528  17.7306 15.73186186  5070,6727.935,91.534,350.451,349.148,0.0
53805.0,STARLINK-4763,PAYLOAD,2022-10-13 22:00:00,15.73205577,9.56e-05,53.2174,104.4776,90.3556,131.8862,-4.5199e-06,-1.254e-05,0.0,0 STARLINK-4763,1 53805U 22111AJ  22286.91667824 -.00001254  00000-0 -45199-5 0  9998,2 53805  53.2174 104.4776 0000956  90.3556 131.8862 15.73205577  1307,6727.879,91.533,350.38699999999994,349.101,0.0
53805.0,STARLINK-4763,PAYLOAD,2022-10-14 08:00:01,15.73257798,0.000106,53.2163,102.4122,91.276,332.1364,-0.00015885,-0.00022907,0.0,0 STARLINK-4763,1 53805U 22111AJ  22287.33335648 -.00022907  00000-0 -15885-3 0  9996,2 53805  53.2163 102.4122 0001060  91.2760 332.1364 15.73257798  5154,6727.73,91.53,350.309,348.88199999999995,0.0
53805.0,STARLINK-4763,PAYLOAD,2022-10-14 14:00:01,15.73226837,0.0001365999999999,53.217,101.1765,97.3641,302.7384,-0.00026691,-0.00037953,0.0,0 STARLINK-4763,1 53805U 22111AJ  22287.58334491 -.00037953  00000-0 -26691-3 0  9992,2 53805  53.2170 101.1765 0001366  97.3641 302.7384 15.73226837  1303,6727.819,91.532,350.603,348.765,0.0
53805.0,STARLINK-4763,PAYLOAD,2022-10-14 20:00:01,15.73205757,0.0001443999999999,53.2174,99.9417,91.5771,285.2343,-1.9552e-05,-3.364e-05,0.0,0 STARLINK-4763,1 53805U 22111AJ  22287.83334491 -.00003364  00000-0 -19552-4 0  9998,2 53805  53.2174  99.9417 0001444  91.5771 285.2343 15.73205757  5236,6727.879,91.533,350.715,348.772,0.0
53805.0,STARLINK-4763,PAYLOAD,2022-10-15 14:00:01,15.73223187,0.0001062,53.2157,96.2235,78.2093,228.8097,-4.936e-05,-7.547e-05,0.0,0 STARLINK-4763,1 53805U 22111AJ  22288.58334491 -.00007547  00000-0 -49360-4 0  9998,2 53805  53.2157  96.2235 0001062  78.2093 228.8097 15.73223187  1300,6727.829000000002,91.532,350.409,348.98,0.0
53805.0,STARLINK-4763,PAYLOAD,2022-10-15 22:00:01,15.73420294,9.1e-05,53.2169,94.579,68.8863,327.2304,-0.0051889,-0.0067917,0.0,0 STARLINK-4763,1 53805U 22111AJ  22288.91668981 -.00679170  00000-0 -51889-2 0  9993,2 53805  53.2169  94.5790 0000910  68.8863 327.2304 15.73420294  1304,6727.267,91.52,349.744,348.52,0.0
53805.0,STARLINK-4763,PAYLOAD,2022-10-16 06:00:00,15.73250748,9.59e-05,53.2152,92.924,76.2999,48.6593,0.00051639,0.00072639,0.0,0 STARLINK-4763,1 53805U 22111AJ  22289.25001157  .00072639  00000-0  51639-3 0  9996,2 53805  53.2152  92.9240 0000959  76.2999  48.6593 15.73250748  5453,6727.75,91.53,350.261,348.97,0.0
53805.0,STARLINK-4763,PAYLOAD,2022-10-16 14:00:01,15.732037900000002,6.54e-05,53.2175,91.2802,50.0063,163.7116,8.806e-06,6.17e-06,0.0,0 STARLINK-4763,1 53805U 22111AJ  22289.58334491  .00000617  00000-0  88060-5 0  9999,2 53805  53.2175  91.2802 0000654  50.0063 163.7116 15.73203790  1303,6727.884,91.533,350.189,349.309,0.0
53805.0,STARLINK-4763,PAYLOAD,2022-10-16 22:00:00,15.73202008,7e-05,53.2173,89.6322,39.7628,262.889,3.6997e-05,4.576e-05,0.0,0 STARLINK-4763,1 53805U 22111AJ  22289.91667824  .00004576  00000-0  36997-4 0  9994,2 53805  53.2173  89.6322 0000700  39.7628 262.8890 15.73202008  1303,6727.889,91.533,350.225,349.283,0.0
53805.0,STARLINK-4763,PAYLOAD,2022-10-17 14:00:01,15.73252158,0.0001331999999999,53.2164,86.3281,60.2088,60.3875,-0.00023691,-0.0003381,0.0,0 STARLINK-4763,1 53805U 22111AJ  22290.58334491 -.00033810  00000-0 -23691-3 0  9991,2 53805  53.2164  86.3281 0001332  60.2088  60.3875 15.73252158  5660,6727.746,91.53,350.5080000000001,348.715,0.0
53805.0,STARLINK-4763,PAYLOAD,2022-10-17 22:00:00,15.73211905,0.000135,53.2154,84.6798,42.2105,167.3176,8.0938e-05,0.00010759,0.0,0 STARLINK-4763,1 53805U 22111AJ  22290.91667824  .00010759  00000-0  80938-4 0  9990,2 53805  53.2154  84.6798 0001350  42.2105 167.3176 15.73211905  5727,6727.861,91.532,350.634,348.8180000000001,0.0
53805.0,STARLINK-4763,PAYLOAD,2022-10-18 14:00:01,15.73238802,0.0001259,53.2153,81.3784,45.8772,341.5463,-0.00055091,-0.00077356,0.0,0 STARLINK-4763,1 53805U 22111AJ  22291.58334491 -.00077356  00000-0 -55091-3 0  9994,2 53805  53.2153  81.3784 0001259  45.8772 341.5463 15.73238802  1302,6727.785,91.531,350.497,348.80300000000005,0.0
53805.0,STARLINK-4763,PAYLOAD,2022-10-18 22:00:00,15.73203241,0.0001262,53.2172,79.7346,55.2135,61.0436,1.9286e-05,2.088e-05,0.0,0 STARLINK-4763,1 53805U 22111AJ  22291.91667824  .00002088  00000-0  19286-4 0  9995,2 53805  53.2172  79.7346 0001262  55.2135  61.0436 15.73203241  1303,6727.886,91.533,350.6,348.902,0.0
53805.0,STARLINK-4763,PAYLOAD,2022-10-19 14:00:01,15.73174531,0.0001409999999999,53.2154,76.4299,35.0366,259.1073,0.00028873,0.00040051,0.0,0 STARLINK-4763,1 53805U 22111AJ  22292.58334491  .00040051  00000-0  28873-3 0  9993,2 53805  53.2154  76.4299 0001410  35.0366 259.1073 15.73174531  1307,6727.968000000003,91.535,350.781,348.884,0.0
53805.0,STARLINK-4763,PAYLOAD,2022-10-19 22:00:00,15.73255428,0.0001499,53.2161,74.7842,31.6443,351.4098,-0.00069169,-0.00096816,0.0,0 STARLINK-4763,1 53805U 22111AJ  22292.91667824 -.00096816  00000-0 -69169-3 0  9994,2 53805  53.2161  74.7842 0001499  31.6443 351.4098 15.73255428  1303,6727.736999999999,91.53,350.611,348.594,0.0
53805.0,STARLINK-4763,PAYLOAD,2022-10-20 06:00:00,15.73217608,0.0001525,53.2148,73.1296,42.3774,69.6513,-5.0188e-05,-7.663e-05,0.0,0 STARLINK-4763,1 53805U 22111AJ  22293.25001157 -.00007663  00000-0 -50188-4 0  9997,2 53805  53.2148  73.1296 0001525  42.3774  69.6513 15.73217608  6088,6727.845,91.532,350.736,348.684,0.0
53805.0,STARLINK-4763,PAYLOAD,2022-10-20 14:00:01,15.73215164,0.0001730999999999,53.2158,71.4819,42.7604,158.2151,1.217e-05,1.089e-05,0.0,0 STARLINK-4763,1 53805U 22111AJ  22293.58334491  .00001089  00000-0  12170-4 0  9996,2 53805  53.2158  71.4819 0001731  42.7604 158.2151 15.73215164  1304,6727.852,91.532,350.88199999999995,348.552,0.0
53805.0,STARLINK-4763,PAYLOAD,2022-10-20 22:00:00,15.73204552,0.000181,53.2157,69.8346,33.1412,256.7649,6.4107e-05,8.387e-05,0.0,0 STARLINK-4763,1 53805U 22111AJ  22293.91667824  .00008387  00000-0  64107-4 0  9997,2 53805  53.2157  69.8346 0001810  33.1412 256.7649 15.73204552  1303,6727.882,91.533,350.965,348.529,0.0
53805.0,STARLINK-4763,PAYLOAD,2022-10-21 14:00:01,15.73334281,0.0001827,53.216,66.5333,33.1294,74.6846,-0.001155,-0.00160595,0.0,0 STARLINK-4763,1 53805U 22111AJ  22294.58334491 -.00160595  00000-0 -11550-2 0  9996,2 53805  53.2160  66.5333 0001827  33.1294  74.6846 15.73334281  1302,6727.512,91.525,350.606,348.148,0.0
53805.0,STARLINK-4763,PAYLOAD,2022-10-21 22:00:00,15.73240798,0.0001881,53.2149,64.8829,26.9476,169.8881,-0.00066832,-0.00093549,0.0,0 STARLINK-4763,1 53805U 22111AJ  22294.91667824 -.00093549  00000-0 -66832-3 0  9990,2 53805  53.2149  64.8829 0001881  26.9476 169.8881 15.73240798  6357,6727.779,91.531,350.909,348.37800000000016,0.0
53805.0,STARLINK-4763,PAYLOAD,2022-10-22 14:00:01,15.73192917,0.0001754999999999,53.2154,61.5835,21.6989,352.9542,-0.00037113,-0.0005237,0.0,0 STARLINK-4763,1 53805U 22111AJ  22295.58334491 -.00052370  00000-0 -37113-3 0  9992,2 53805  53.2154  61.5835 0001755  21.6989 352.9542 15.73192917  6454,6727.915,91.534,350.961,348.6,0.0
53805.0,STARLINK-4763,PAYLOAD,2022-10-22 22:00:00,15.73214187,0.0001968,53.2155,59.9342,18.1098,85.4435,0.00010738,0.00014485,0.0,0 STARLINK-4763,1 53805U 22111AJ  22295.91667824  .00014485  00000-0  10738-3 0  9995,2 53805  53.2155  59.9342 0001968  18.1098  85.4435 15.73214187  1309,6727.855,91.532,351.0440000000001,348.396,0.0
53805.0,STARLINK-4763,PAYLOAD,2022-10-23 00:00:02,15.73247393,0.0001903,53.2157,59.5212,19.268,196.5782,-0.00036827,-0.00052094,0.0,0 STARLINK-4763,1 53805U 22111AJ  22296.00002315 -.00052094  00000-0 -36827-3 0  9991,2 53805  53.2157  59.5212 0001903  19.2680 196.5782 15.73247393  6524,6727.76,91.53,350.905,348.345,0.0
53805.0,STARLINK-4763,PAYLOAD,2022-10-23 08:00:01,15.73205341,0.0001934,53.2162,57.8703,26.1521,278.6747,0.00092086,0.00130678,0.0,0 STARLINK-4763,1 53805U 22111AJ  22296.33335648  .00130678  00000-0  92086-3 0  9997,2 53805  53.2162  57.8703 0001934  26.1521 278.6747 15.73205341  6576,6727.88,91.533,351.046,348.444,0.0
